0 COSMOS 1275 DEB
1 13796U 81053GT  13283.45534905  .00000568  00000-0  55640-3 0  3395
2 13796 083.0219 314.1067 0115630 182.5796 245.8419 13.74520992544915
0 COSMOS 1275 DEB
1 13796U 81053GT  13286.14755559  .00000903  00000-0  89384-3 0  3401
2 13796 083.0212 312.1359 0115739 175.0734 247.6298 13.74526440545289
0 COSMOS 1275 DEB
1 13796U 81053GT  13288.27014440  .00001117  00000-0  11084-2 0  3414
2 13796 083.0208 310.5819 0115762 169.2061 310.7757 13.74531162545572
0 COSMOS 1275 DEB
1 13796U 81053GT  13290.52658714  .00000980  00000-0  97061-3 0  3421
2 13796 083.0208 308.9296 0115757 162.9587 316.3165 13.74536107545882
0 COSMOS 1275 DEB
1 13796U 81053GT  13292.84381566  .00001075  00000-0  10659-2 0  3430
2 13796 083.0209 307.2326 0115709 156.5303 262.6994 13.74540160546205
0 COSMOS 1275 DEB
1 13796U 81053GT  13295.10135175  .00001107  00000-0  10978-2 0  3446
2 13796 083.0210 305.5792 0115740 150.2444 273.7622 13.74544779546512
